STARLINK-37281          
1 68773U 26086H   26117.56354174  .00293460  35724-4  75113-3 0  9994
2 68773  97.2785 152.9894 0004931   3.1774 356.9532 15.95293164  1186
