{
  "norad_id": 68773,
  "name": "STARLINK-37281",
  "history": [
    {
      "epoch": "2026-04-27T13:31:30.006336Z",
      "apogee_km": 290.7846639804311,
      "perigee_km": 284.21061516080863,
      "latitude_deg": -3.2771514411613636e-05,
      "longitude_deg": 94.56282363776754,
      "height_km": 287.4099024334549,
      "semi_major_axis_km": 6665.63463957062,
      "eccentricity": 0.00049313,
      "inclination_deg": 97.2785,
      "raan_deg": 152.9894,
      "arg_perigee_deg": 3.1774,
      "mean_anomaly_deg": 356.9532,
      "mean_motion_rev_day": 15.95293164
    }
  ]
}